OBJECT_NAME,OBJECT_ID,EPOCH,MEAN_MOTION,ECCENTRICITY,INCLINATION,RA_OF_ASC_NODE,ARG_OF_PERICENTER,MEAN_ANOMALY,EPHEMERIS_TYPE,CLASSIFICATION_TYPE,NORAD_CAT_ID,ELEMENT_SET_NO,REV_AT_EPOCH,BSTAR,MEAN_MOTION_DOT,MEAN_MOTION_DDOT
BEIDOU-2 IGSO-1 (C06),2010-036A,2026-05-12T16:32:11.849856,1.00282752,.00588559,54.2951,163.2807,224.5644,197.8413,0,U,36828,999,5774,0,-.41E-6,0
BEIDOU-2 G4 (C04),2010-057A,2026-05-20T16:42:23.307840,1.00271619,.00057686,3.5802,69.0966,208.2406,11.5955,0,U,37210,999,5701,0,-.118E-5,0
BEIDOU-2 IGSO-2 (C07),2010-068A,2026-05-17T16:15:26.818272,1.00292865,.00546521,47.6069,272.2104,211.9480,101.4506,0,U,37256,999,5648,0,-.224E-5,0
BEIDOU-2 IGSO-3 (C08),2011-013A,2026-05-14T18:01:06.818304,1.00276202,.00339423,62.3634,40.4703,185.9417,24.6219,0,U,37384,999,5532,0,-.206E-5,0
BEIDOU-2 IGSO-4 (C09),2011-038A,2026-05-20T12:57:57.534336,1.00290213,.01584817,54.5938,165.9188,231.3601,127.4243,0,U,37763,999,5437,0,.18E-6,0
BEIDOU-2 IGSO-5 (C10),2011-073A,2026-05-19T20:27:21.400992,1.00254913,.01120985,47.7316,271.8942,220.6126,144.0394,0,U,37948,999,5285,0,-.183E-5,0
BEIDOU-2 G5 (C05),2012-008A,2026-05-20T23:04:03.644256,1.00273214,.00108905,3.5074,69.8488,270.2637,303.1965,0,U,38091,999,5209,0,.51E-6,0
BEIDOU-2 M3 (C11),2012-018A,2026-05-20T06:24:17.123040,1.86229710,.00197607,55.7826,305.8159,275.9345,83.8176,0,U,38250,999,9542,0,-.58E-6,0
BEIDOU-2 M4 (C12),2012-018B,2026-05-20T04:46:44.019840,1.86229401,.00110325,55.6827,305.0343,279.8130,80.0393,0,U,38251,999,9542,0,-.57E-6,0
BEIDOU-2 M6 (C14),2012-050B,2026-05-19T21:48:54.016128,1.86230903,.00142592,56.5208,63.8292,352.6403,7.3328,0,U,38775,999,9278,0,-.41E-6,0
BEIDOU-2 G6 (C02),2012-059A,2026-05-20T21:28:40.693152,1.00269978,.00102177,4.3541,73.8023,320.5265,250.4343,0,U,38953,999,4963,0,-.181E-5,0
BEIDOU-3S IGSO-1S (C31),2015-019A,2026-05-20T21:31:25.428576,1.00255240,.00380557,49.2479,295.7871,189.9858,169.2061,0,U,40549,999,4079,0,-.181E-5,0
BEIDOU-3S M2S (C58),2015-037A,2026-05-20T09:38:48.143904,1.86231852,.00076233,54.8960,303.0022,265.0164,94.8728,0,U,40748,999,7360,0,-.58E-6,0
BEIDOU-3S M1S (C57),2015-037B,2026-05-20T01:49:13.724256,1.86254754,.0004,54.8932,303.0013,57.4653,302.5491,0,U,40749,999,7360,0,-.57E-6,0
BEIDOU-3S IGSO-2S (C56),2015-053A,2026-05-20T19:02:21.684192,1.00265106,.00647291,49.2659,259.1076,191.0945,170.1484,0,U,40938,999,3908,0,-.157E-5,0
BEIDOU-2 IGSO-6 (C13),2016-021A,2026-05-20T16:31:25.921344,1.00263960,.00573694,60.1892,38.3127,232.4301,309.7522,0,U,41434,999,3720,0,-.169E-5,0
BEIDOU-2 G7 (C03),2016-037A,2026-05-20T23:18:47.232000,1.00265083,.00072829,1.6542,69.0612,359.4821,270.2306,0,U,41586,999,661,0,-.359E-5,0
BEIDOU-3 M1 (C19),2017-069A,2026-05-19T03:17:50.204832,1.86230751,.00114679,56.6686,64.0415,321.8797,38.0304,0,U,43001,999,5806,0,-.41E-6,0
BEIDOU-3 M2 (C20),2017-069B,2026-05-20T16:29:11.294592,1.86230581,.00098029,56.6686,64.0265,344.8357,15.1308,0,U,43002,999,5808,0,-.42E-6,0
BEIDOU-3 M7 (C27),2018-003A,2026-05-20T10:17:09.644640,1.86227939,.00051577,54.3536,303.2827,86.7095,273.3263,0,U,43107,999,5683,0,-.6E-6,0
BEIDOU-3 M8 (C28),2018-003B,2026-05-20T08:58:15.367872,1.86230797,.00021286,54.3473,303.2667,274.9884,84.9638,0,U,43108,999,5684,0,-.6E-6,0
BEIDOU-3 M4 (C22),2018-018A,2026-05-18T03:09:43.074720,1.86230951,.0007886,56.6264,64.1398,9.7385,350.2635,0,U,43207,999,5618,0,-.43E-6,0
BEIDOU-3 M3 (C21),2018-018B,2026-05-19T06:31:51.921408,1.86230642,.00095149,56.6270,64.1059,335.4256,24.5205,0,U,43208,999,5620,0,-.41E-6,0
BEIDOU-3 M9 (C29),2018-029A,2026-05-20T13:31:45.514272,1.86227997,.00009513,54.2193,300.9137,119.7583,240.2270,0,U,43245,999,5538,0,-.58E-6,0
BEIDOU-3 M10 (C30),2018-029B,2026-05-20T11:57:26.415360,1.86229034,.00044419,54.2177,300.9434,38.1071,321.8999,0,U,43246,999,5536,0,-.58E-6,0
BEIDOU-2 IGSO-7 (C16),2018-057A,2026-05-20T23:19:24.672576,1.00259367,.01043424,55.1882,163.2953,238.0207,298.9139,0,U,43539,999,2885,0,-.42E-6,0
BEIDOU-3 M5 (C23),2018-062A,2026-05-20T04:27:03.406176,1.86228820,.00051887,54.0834,183.2565,287.6308,72.3870,0,U,43581,999,5311,0,.42E-6,0
BEIDOU-3 M6 (C24),2018-062B,2026-05-17T08:44:12.235200,1.86227445,.00047385,54.0833,183.3416,15.5717,344.5351,0,U,43582,999,5306,0,.82E-6,0
BEIDOU-3 M12 (C26),2018-067A,2026-05-17T07:15:29.306592,1.86227757,.00077432,54.1786,182.0879,31.4775,328.6606,0,U,43602,999,5254,0,.84E-6,0
BEIDOU-3 M11 (C25),2018-067B,2026-05-20T02:55:55.302240,1.86227273,.0004377,54.1757,181.9561,15.9012,344.1863,0,U,43603,999,5262,0,.44E-6,0
BEIDOU-3 M13 (C32),2018-072A,2026-05-20T14:44:20.272992,1.86231134,.00081836,56.6015,63.5700,323.4763,36.4643,0,U,43622,999,5214,0,-.42E-6,0
